STARLINK-1764           
1 46343U 20062U   26068.90986034  .00107455  00000+0  99333-3 0  9992
2 46343  53.0450 315.9893 0000473 302.3182  57.7787 15.66750924305183
STARLINK-11176 [DTC]    
1 60060U 24113B   26068.58434038  .00012500  00000+0  10788-3 0  9994
2 60060  53.1573 191.8067 0001061  97.1103 263.0035 15.69709945 99540
