[{"OBJECT_NAME":"STARLINK-1764","OBJECT_ID":"2020-062U","EPOCH":"2026-03-09T21:50:11.933376","MEAN_MOTION":15.66750924,"ECCENTRICITY":4.732e-5,"INCLINATION":53.045,"RA_OF_ASC_NODE":315.9893,"ARG_OF_PERICENTER":302.3182,"MEAN_ANOMALY":57.7787,"EPHEMERIS_TYPE":0,"CLASSIFICATION_TYPE":"U","NORAD_CAT_ID":46343,"ELEMENT_SET_NO":999,"REV_AT_EPOCH":30518,"BSTAR":0.00099332612,"MEAN_MOTION_DOT":0.00107455,"MEAN_MOTION_DDOT":0},{"OBJECT_NAME":"STARLINK-11176 [DTC]","OBJECT_ID":"2024-113B","EPOCH":"2026-03-09T14:01:27.008832","MEAN_MOTION":15.69709945,"ECCENTRICITY":0.0001061,"INCLINATION":53.1573,"RA_OF_ASC_NODE":191.8067,"ARG_OF_PERICENTER":97.1103,"MEAN_ANOMALY":263.0035,"EPHEMERIS_TYPE":0,"CLASSIFICATION_TYPE":"U","NORAD_CAT_ID":60060,"ELEMENT_SET_NO":999,"REV_AT_EPOCH":9954,"BSTAR":0.00010788,"MEAN_MOTION_DOT":0.000125,"MEAN_MOTION_DDOT":0}]
